COSMOS 2251 DEB         
1 34739U 93036ZH  17345.40977341  .00001706  00000-0  25291-3 0  9998
2 34739  74.0260 342.2255 0055724 100.5319  21.7695 14.74885244467613
